{
  "type": "FeatureCollection",
  "features": [
    {
      "type": "Feature",
      "properties": {
        "norad_id": 66554,
        "name": "GLOBAL-33",
        "group": "last-30-days",
        "lat": -29.23209889199454,
        "lon": 34.48833909600225,
        "alt_km": 473.1809319707145,
        "timestamp": "2025-12-09T23:33:22.608606+00:00",
        "meta_object_name": "GLOBAL-33",
        "meta_object_id": "2025-267A",
        "meta_epoch": "2025-12-09T14:22:09.826176",
        "meta_mean_motion": 15.31535046,
        "meta_eccentricity": 0.00046403,
        "meta_inclination": 42.0203,
        "meta_ra_of_asc_node": 75.1254,
        "meta_arg_of_pericenter": 30.4756,
        "meta_mean_anomaly": 329.6351,
        "meta_ephemeris_type": 0,
        "meta_classification_type": "U",
        "meta_norad_cat_id": 66554,
        "meta_element_set_no": 999,
        "meta_rev_at_epoch": 292,
        "meta_bstar": 0.00060900929,
        "meta_mean_motion_dot": 0.00018748,
        "meta_mean_motion_ddot": 0,
        "tle_line1": "1 66554U 25267A   25343.59872484  .00018748  00000+0  60901-3 0  9998",
        "tle_line2": "2 66554  42.0203  75.1254 0004640  30.4756 329.6351 15.31535046  2927"
      },
      "geometry": {
        "type": "Point",
        "coordinates": [
          34.48833909600225,
          -29.23209889199454
        ]
      }
    },
    {
      "type": "Feature",
      "properties": {
        "norad_id": 66555,
        "name": "ELECTRON KICK STAGE R/B",
        "group": "last-30-days",
        "lat": 4.909305515396054,
        "lon": 78.25966997904432,
        "alt_km": 462.83439418865146,
        "timestamp": "2025-12-09T23:33:22.608620+00:00",
        "meta_object_name": "ELECTRON KICK STAGE R/B",
        "meta_object_id": "2025-267B",
        "meta_epoch": "2025-12-09T14:08:24.415872",
        "meta_mean_motion": 15.32568899,
        "meta_eccentricity": 0.00067718,
        "meta_inclination": 42.0198,
        "meta_ra_of_asc_node": 75.0548,
        "meta_arg_of_pericenter": 28.3952,
        "meta_mean_anomaly": 331.7253,
        "meta_ephemeris_type": 0,
        "meta_classification_type": "U",
        "meta_norad_cat_id": 66555,
        "meta_element_set_no": 999,
        "meta_rev_at_epoch": 292,
        "meta_bstar": 0.0010090003,
        "meta_mean_motion_dot": 0.00032333,
        "meta_mean_motion_ddot": 0,
        "tle_line1": "1 66555U 25267B   25343.58917148  .00032333  00000+0  10090-2 0  9994",
        "tle_line2": "2 66555  42.0198  75.0548 0006771  28.3952 331.7253 15.32568899  2925"
      },
      "geometry": {
        "type": "Point",
        "coordinates": [
          78.25966997904432,
          4.909305515396054
        ]
      }
    },
    {
      "type": "Feature",
      "properties": {
        "norad_id": 66557,
        "name": "STARLINK-35699",
        "group": "last-30-days",
        "lat": 11.112992910986447,
        "lon": -54.83926209271926,
        "alt_km": 413.4735758616298,
        "timestamp": "2025-12-09T23:33:22.608630+00:00",
        "meta_object_name": "STARLINK-35699",
        "meta_object_id": "2025-268A",
        "meta_epoch": "2025-12-09T14:00:01.999872",
        "meta_mean_motion": 15.50534014,
        "meta_eccentricity": 9.865e-05,
        "meta_inclination": 43.0004,
        "meta_ra_of_asc_node": 139.6588,
        "meta_arg_of_pericenter": 270.8143,
        "meta_mean_anomaly": 187.5254,
        "meta_ephemeris_type": 0,
        "meta_classification_type": "U",
        "meta_norad_cat_id": 66557,
        "meta_element_set_no": 999,
        "meta_rev_at_epoch": 416,
        "meta_bstar": 0.00096554206,
        "meta_mean_motion_dot": 0.00056621,
        "meta_mean_motion_ddot": 0,
        "tle_line1": "1 66557U 25268A   25343.58335648  .00056621  00000+0  96554-3 0  9992",
        "tle_line2": "2 66557  43.0004 139.6588 0000986 270.8143 187.5254 15.50534014  4161"
      },
      "geometry": {
        "type": "Point",
        "coordinates": [
          -54.83926209271926,
          11.112992910986447
        ]
      }
    },
    {
      "type": "Feature",
      "properties": {
        "norad_id": 66558,
        "name": "STARLINK-35695",
        "group": "last-30-days",
        "lat": 9.845292608782195,
        "lon": -53.40822269241412,
        "alt_km": 413.7219230102701,
        "timestamp": "2025-12-09T23:33:22.608643+00:00",
        "meta_object_name": "STARLINK-35695",
        "meta_object_id": "2025-268B",
        "meta_epoch": "2025-12-09T14:00:01.999872",
        "meta_mean_motion": 15.50526273,
        "meta_eccentricity": 0.00010938,
        "meta_inclination": 43.0004,
        "meta_ra_of_asc_node": 139.6542,
        "meta_arg_of_pericenter": 273.6768,
        "meta_mean_anomaly": 186.5713,
        "meta_ephemeris_type": 0,
        "meta_classification_type": "U",
        "meta_norad_cat_id": 66558,
        "meta_element_set_no": 999,
        "meta_rev_at_epoch": 416,
        "meta_bstar": 0.00097058694,
        "meta_mean_motion_dot": 0.00056905,
        "meta_mean_motion_ddot": 0,
        "tle_line1": "1 66558U 25268B   25343.58335648  .00056905  00000+0  97059-3 0  9999",
        "tle_line2": "2 66558  43.0004 139.6542 0001093 273.6768 186.5713 15.50526273  4163"
      },
      "geometry": {
        "type": "Point",
        "coordinates": [
          -53.40822269241412,
          9.845292608782195
        ]
      }
    },
    {
      "type": "Feature",
      "properties": {
        "norad_id": 66559,
        "name": "STARLINK-35419",
        "group": "last-30-days",
        "lat": 8.505872821382876,
        "lon": -51.91437886398984,
        "alt_km": 414.1090364497268,
        "timestamp": "2025-12-09T23:33:22.608654+00:00",
        "meta_object_name": "STARLINK-35419",
        "meta_object_id": "2025-268C",
        "meta_epoch": "2025-12-09T14:00:01.999872",
        "meta_mean_motion": 15.50599891,
        "meta_eccentricity": 0.00020762,
        "meta_inclination": 43.0005,
        "meta_ra_of_asc_node": 139.6504,
        "meta_arg_of_pericenter": 268.1884,
        "meta_mean_anomaly": 194.0445,
        "meta_ephemeris_type": 0,
        "meta_classification_type": "U",
        "meta_norad_cat_id": 66559,
        "meta_element_set_no": 999,
        "meta_rev_at_epoch": 416,
        "meta_bstar": -0.0015615323,
        "meta_mean_motion_dot": -0.00090966,
        "meta_mean_motion_ddot": 0,
        "tle_line1": "1 66559U 25268C   25343.58335648 -.00090966  00000+0 -15615-2 0  9994",
        "tle_line2": "2 66559  43.0005 139.6504 0002076 268.1884 194.0445 15.50599891  4165"
      },
      "geometry": {
        "type": "Point",
        "coordinates": [
          -51.91437886398984,
          8.505872821382876
        ]
      }
    },
    {
      "type": "Feature",
      "properties": {
        "norad_id": 66560,
        "name": "STARLINK-35411",
        "group": "last-30-days",
        "lat": 7.210133997176161,
        "lon": -50.486302586404726,
        "alt_km": 414.2950814842807,
        "timestamp": "2025-12-09T23:33:22.608667+00:00",
        "meta_object_name": "STARLINK-35411",
        "meta_object_id": "2025-268D",
        "meta_epoch": "2025-12-09T14:00:01.999872",
        "meta_mean_motion": 15.50602956,
        "meta_eccentricity": 0.00020843,
        "meta_inclination": 43.0005,
        "meta_ra_of_asc_node": 139.6456,
        "meta_arg_of_pericenter": 269.6093,
        "meta_mean_anomaly": 194.545,
        "meta_ephemeris_type": 0,
        "meta_classification_type": "U",
        "meta_norad_cat_id": 66560,
        "meta_element_set_no": 999,
        "meta_rev_at_epoch": 416,
        "meta_bstar": -0.0016974083,
        "meta_mean_motion_dot": -0.00098765,
        "meta_mean_motion_ddot": 0,
        "tle_line1": "1 66560U 25268D   25343.58335648 -.00098765  00000+0 -16974-2 0  9990",
        "tle_line2": "2 66560  43.0005 139.6456 0002084 269.6093 194.5450 15.50602956  4168"
      },
      "geometry": {
        "type": "Point",
        "coordinates": [
          -50.486302586404726,
          7.210133997176161
        ]
      }
    },
    {
      "type": "Feature",
      "properties": {
        "norad_id": 66561,
        "name": "STARLINK-35305",
        "group": "last-30-days",
        "lat": 4.614287802591759,
        "lon": -47.66190826745882,
        "alt_km": 414.5507212224302,
        "timestamp": "2025-12-09T23:33:22.608678+00:00",
        "meta_object_name": "STARLINK-35305",
        "meta_object_id": "2025-268E",
        "meta_epoch": "2025-12-09T14:00:01.999872",
        "meta_mean_motion": 15.50595609,
        "meta_eccentricity": 0.00020194,
        "meta_inclination": 43.0005,
        "meta_ra_of_asc_node": 139.6361,
        "meta_arg_of_pericenter": 269.5098,
        "meta_mean_anomaly": 198.4777,
        "meta_ephemeris_type": 0,
        "meta_classification_type": "U",
        "meta_norad_cat_id": 66561,
        "meta_element_set_no": 999,
        "meta_rev_at_epoch": 411,
        "meta_bstar": -0.0014757233,
        "meta_mean_motion_dot": -0.00086026,
        "meta_mean_motion_ddot": 0,
        "tle_line1": "1 66561U 25268E   25343.58335648 -.00086026  00000+0 -14757-2 0  9995",
        "tle_line2": "2 66561  43.0005 139.6361 0002019 269.5098 198.4777 15.50595609  4112"
      },
      "geometry": {
        "type": "Point",
        "coordinates": [
          -47.66190826745882,
          4.614287802591759
        ]
      }
    }
  ]
}